[{"OBJECT_NAME":"STARLINK-5376","OBJECT_ID":"2023-046BC","EPOCH":"2026-03-09T22:00:01.999584","MEAN_MOTION":15.13074474,"ECCENTRICITY":0.00020856,"INCLINATION":43.0003,"RA_OF_ASC_NODE":144.1718,"ARG_OF_PERICENTER":273.2498,"MEAN_ANOMALY":52.6444,"EPHEMERIS_TYPE":0,"CLASSIFICATION_TYPE":"U","NORAD_CAT_ID":56142,"ELEMENT_SET_NO":999,"REV_AT_EPOCH":567,"BSTAR":0.00041642388,"MEAN_MOTION_DOT":7.28e-5,"MEAN_MOTION_DDOT":0},{"OBJECT_NAME":"OBJECT B","OBJECT_ID":"2025-180B","EPOCH":"2026-03-02T07:51:01.178208","MEAN_MOTION":15.14359033,"ECCENTRICITY":0.0014719,"INCLINATION":97.5099,"RA_OF_ASC_NODE":189.7404,"ARG_OF_PERICENTER":334.9723,"MEAN_ANOMALY":25.0794,"EPHEMERIS_TYPE":0,"CLASSIFICATION_TYPE":"U","NORAD_CAT_ID":65260,"ELEMENT_SET_NO":999,"REV_AT_EPOCH":2948,"BSTAR":0.00032386063,"MEAN_MOTION_DOT":5.888e-5,"MEAN_MOTION_DDOT":0}]
